{"type": "FeatureCollection", "features": [ {"type": "Feature", "properties": {"norad_id": 35165, "name": "FENGYUN 1C DEB", "group": "fengyun-1c-debris", "lat": -29.212470480845887, "lon": 97.56709763637843, "alt_km": 775.4603759222728, "timestamp": "2025-12-26T07:29:18.743243+00:00", "meta": {"OBJECT_NAME": "FENGYUN 1C DEB", "OBJECT_ID": "1999-025DMV", "EPOCH": "2025-12-21T05:22:21.779616", "MEAN_MOTION": 14.33882696, "ECCENTRICITY": 0.0020007, "INCLINATION": 98.8797, "RA_OF_ASC_NODE": 87.3309, "ARG_OF_PERICENTER": 36.4089, "MEAN_ANOMALY": 323.8451, "EPHEMERIS_TYPE": 0, "CLASSIFICATION_TYPE": "U", "NORAD_CAT_ID": 35165, "ELEMENT_SET_NO": 999, "REV_AT_EPOCH": 89842, "BSTAR": 0.0014686, "MEAN_MOTION_DOT": 4.055e-05, "MEAN_MOTION_DDOT": 0}, "tle": {"line1": "1 35165U 99025DMV 25355.22386319  .00004055  00000+0  14686-2 0  9999", "line2": "2 35165  98.8797  87.3309 0020007  36.4089 323.8451 14.33882696898426"}}, "geometry": {"type": "Point", "coordinates": [97.56709763637843, -29.212470480845887]}}, {"type": "Feature", "properties": {"norad_id": 35167, "name": "FENGYUN 1C DEB", "group": "fengyun-1c-debris", "lat": -35.9273587127226, "lon": -0.6652416047056501, "alt_km": 948.1771283267626, "timestamp": "2025-12-26T07:29:18.743253+00:00", "meta": {"OBJECT_NAME": "FENGYUN 1C DEB", "OBJECT_ID": "1999-025DMX", "EPOCH": "2025-12-24T05:19:40.498464", "MEAN_MOTION": 14.31185435, "ECCENTRICITY": 0.02299079, "INCLINATION": 98.4495, "RA_OF_ASC_NODE": 351.1168, "ARG_OF_PERICENTER": 170.1263, "MEAN_ANOMALY": 190.4555, "EPHEMERIS_TYPE": 0, "CLASSIFICATION_TYPE": "U", "NORAD_CAT_ID": 35167, "ELEMENT_SET_NO": 999, "REV_AT_EPOCH": 70184, "BSTAR": 0.00033183096, "MEAN_MOTION_DOT": 1.122e-05, "MEAN_MOTION_DDOT": 0}, "tle": {"line1": "1 35167U 99025DMX 25358.22199651  .00001122  00000+0  33183-3 0  9991", "line2": "2 35167  98.4495 351.1168 0229907 170.1263 190.4555 14.31185435701841"}}, "geometry": {"type": "Point", "coordinates": [-0.6652416047056501, -35.9273587127226]}}, {"type": "Feature", "properties": {"norad_id": 35168, "name": "FENGYUN 1C DEB", "group": "fengyun-1c-debris", "lat": -43.40633753017821, "lon": 63.316913269522736, "alt_km": 911.608536596791, "timestamp": "2025-12-26T07:29:18.743263+00:00", "meta": {"OBJECT_NAME": "FENGYUN 1C DEB", "OBJECT_ID": "1999-025DMY", "EPOCH": "2025-12-21T22:57:46.882368", "MEAN_MOTION": 14.15533628, "ECCENTRICITY": 0.01261574, "INCLINATION": 98.2757, "RA_OF_ASC_NODE": 247.1845, "ARG_OF_PERICENTER": 100.9032, "MEAN_ANOMALY": 260.6368, "EPHEMERIS_TYPE": 0, "CLASSIFICATION_TYPE": "U", "NORAD_CAT_ID": 35168, "ELEMENT_SET_NO": 999, "REV_AT_EPOCH": 58054, "BSTAR": 0.00025025253, "MEAN_MOTION_DOT": 4.9e-06, "MEAN_MOTION_DDOT": 0}, "tle": {"line1": "1 35168U 99025DMY 25355.95679262  .00000490  00000+0  25025-3 0  9993", "line2": "2 35168  98.2757 247.1845 0126157 100.9032 260.6368 14.15533628580542"}}, "geometry": {"type": "Point", "coordinates": [63.316913269522736, -43.40633753017821]}}, {"type": "Feature", "properties": {"norad_id": 35169, "name": "FENGYUN 1C DEB", "group": "fengyun-1c-debris", "lat": -79.96873586390691, "lon": -49.41501922447976, "alt_km": 800.1404542880573, "timestamp": "2025-12-26T07:29:18.743274+00:00", "meta": {"OBJECT_NAME": "FENGYUN 1C DEB", "OBJECT_ID": "1999-025DMZ", "EPOCH": "2025-12-25T22:00:28.340352", "MEAN_MOTION": 14.58720603, "ECCENTRICITY": 0.0152527, "INCLINATION": 99.1286, "RA_OF_ASC_NODE": 244.784, "ARG_OF_PERICENTER": 68.0257, "MEAN_ANOMALY": 293.7069, "EPHEMERIS_TYPE": 0, "CLASSIFICATION_TYPE": "U", "NORAD_CAT_ID": 35169, "ELEMENT_SET_NO": 999, "REV_AT_EPOCH": 65972, "BSTAR": 0.00049342825, "MEAN_MOTION_DOT": 2.643e-05, "MEAN_MOTION_DDOT": 0}, "tle": {"line1": "1 35169U 99025DMZ 25359.91699468  .00002643  00000+0  49343-3 0  9995", "line2": "2 35169  99.1286 244.7840 0152527  68.0257 293.7069 14.58720603659721"}}, "geometry": {"type": "Point", "coordinates": [-49.41501922447976, -79.96873586390691]}}, {"type": "Feature", "properties": {"norad_id": 35171, "name": "FENGYUN 1C DEB", "group": "fengyun-1c-debris", "lat": 66.99982846395115, "lon": -6.69164937899178, "alt_km": 1003.9671796825014, "timestamp": "2025-12-26T07:29:18.743284+00:00", "meta": {"OBJECT_NAME": "FENGYUN 1C DEB", "OBJECT_ID": "1999-025DNB", "EPOCH": "2025-12-24T03:18:30.857760", "MEAN_MOTION": 13.95016352, "ECCENTRICITY": 0.01385164, "INCLINATION": 99.0083, "RA_OF_ASC_NODE": 149.2404, "ARG_OF_PERICENTER": 287.4174, "MEAN_ANOMALY": 71.1884, "EPHEMERIS_TYPE": 0, "CLASSIFICATION_TYPE": "U", "NORAD_CAT_ID": 35171, "ELEMENT_SET_NO": 999, "REV_AT_EPOCH": 88717, "BSTAR": 0.0019248367, "MEAN_MOTION_DOT": 2.763e-05, "MEAN_MOTION_DDOT": 0}, "tle": {"line1": "1 35171U 99025DNB 25358.13785715  .00002763  00000+0  19248-2 0  9995", "line2": "2 35171  99.0083 149.2404 0138516 287.4174  71.1884 13.95016352887174"}}, "geometry": {"type": "Point", "coordinates": [-6.69164937899178, 66.99982846395115]}}, {"type": "Feature", "properties": {"norad_id": 35173, "name": "FENGYUN 1C DEB", "group": "fengyun-1c-debris", "lat": 43.336154262536766, "lon": -99.24509698006587, "alt_km": 846.0515306570433, "timestamp": "2025-12-26T07:29:18.743294+00:00", "meta": {"OBJECT_NAME": "FENGYUN 1C DEB", "OBJECT_ID": "1999-025DND", "EPOCH": "2025-12-22T00:26:44.822112", "MEAN_MOTION": 13.37371339, "ECCENTRICITY": 0.04908426, "INCLINATION": 99.786, "RA_OF_ASC_NODE": 67.2396, "ARG_OF_PERICENTER": 191.1556, "MEAN_ANOMALY": 167.8363, "EPHEMERIS_TYPE": 0, "CLASSIFICATION_TYPE": "U", "NORAD_CAT_ID": 35173, "ELEMENT_SET_NO": 999, "REV_AT_EPOCH": 65953, "BSTAR": 0.0019866257, "MEAN_MOTION_DOT": 2.041e-05, "MEAN_MOTION_DDOT": 0}, "tle": {"line1": "1 35173U 99025DND 25356.01857433  .00002041  00000+0  19866-2 0  9994", "line2": "2 35173  99.7860  67.2396 0490842 191.1556 167.8363 13.37371339659530"}}, "geometry": {"type": "Point", "coordinates": [-99.24509698006587, 43.336154262536766]}}, {"type": "Feature", "properties": {"norad_id": 35174, "name": "FENGYUN 1C DEB", "group": "fengyun-1c-debris", "lat": -35.180052325784445, "lon": -16.94735401460594, "alt_km": 679.0040668015299, "timestamp": "2025-12-26T07:29:18.743304+00:00", "meta": {"OBJECT_NAME": "FENGYUN 1C DEB", "OBJECT_ID": "1999-025DNE", "EPOCH": "2025-12-13T04:07:25.072608", "MEAN_MOTION": 14.98877767, "ECCENTRICITY": 0.01541479, "INCLINATION": 98.9697, "RA_OF_ASC_NODE": 321.54, "ARG_OF_PERICENTER": 181.4297, "MEAN_ANOMALY": 178.6503, "EPHEMERIS_TYPE": 0, "CLASSIFICATION_TYPE": "U", "NORAD_CAT_ID": 35174, "ELEMENT_SET_NO": 999, "REV_AT_EPOCH": 90172, "BSTAR": 0.0023807921, "MEAN_MOTION_DOT": 0.0003695, "MEAN_MOTION_DDOT": 0}, "tle": {"line1": "1 35174U 99025DNE 25347.17181797  .00036950  00000+0  23808-2 0  9992", "line2": "2 35174  98.9697 321.5400 0154147 181.4297 178.6503 14.98877767901722"}}, "geometry": {"type": "Point", "coordinates": [-16.94735401460594, -35.180052325784445]}}, {"type": "Feature", "properties": {"norad_id": 35175, "name": "FENGYUN 1C DEB", "group": "fengyun-1c-debris", "lat": -77.03170531308103, "lon": 49.200101528685664, "alt_km": 796.2679561008863, "timestamp": "2025-12-26T07:29:18.743314+00:00", "meta": {"OBJECT_NAME": "FENGYUN 1C DEB", "OBJECT_ID": "1999-025DNF", "EPOCH": "2025-12-23T07:12:53.905824", "MEAN_MOTION": 14.21318843, "ECCENTRICITY": 0.00572726, "INCLINATION": 98.5748, "RA_OF_ASC_NODE": 5.3413, "ARG_OF_PERICENTER": 249.0345, "MEAN_ANOMALY": 110.4698, "EPHEMERIS_TYPE": 0, "CLASSIFICATION_TYPE": "U", "NORAD_CAT_ID": 35175, "ELEMENT_SET_NO": 999, "REV_AT_EPOCH": 61385, "BSTAR": 0.00032095367, "MEAN_MOTION_DOT": 6.69e-06, "MEAN_MOTION_DDOT": 0}, "tle": {"line1": "1 35175U 99025DNF 25357.30062391  .00000669  00000+0  32095-3 0  9994", "line2": "2 35175  98.5748   5.3413 0057272 249.0345 110.4698 14.21318843613857"}}, "geometry": {"type": "Point", "coordinates": [49.200101528685664, -77.03170531308103]}}, {"type": "Feature", "properties": {"norad_id": 35176, "name": "FENGYUN 1C DEB", "group": "fengyun-1c-debris", "lat": 81.32170512103615, "lon": -93.95360141772356, "alt_km": 814.8334167327657, "timestamp": "2025-12-26T07:29:18.743324+00:00", "meta": {"OBJECT_NAME": "FENGYUN 1C DEB", "OBJECT_ID": "1999-025DNG", "EPOCH": "2025-12-22T18:20:35.359296", "MEAN_MOTION": 14.17009224, "ECCENTRICITY": 0.00542532, "INCLINATION": 98.5561, "RA_OF_ASC_NODE": 343.1494, "ARG_OF_PERICENTER": 28.1676, "MEAN_ANOMALY": 332.2416, "EPHEMERIS_TYPE": 0, "CLASSIFICATION_TYPE": "U", "NORAD_CAT_ID": 35176, "ELEMENT_SET_NO": 999, "REV_AT_EPOCH": 91070, "BSTAR": 0.00031421209, "MEAN_MOTION_DOT": 5.99e-06, "MEAN_MOTION_DDOT": 0}, "tle": {"line1": "1 35176U 99025DNG 25356.76429814  .00000599  00000+0  31421-3 0  9995", "line2": "2 35176  98.5561 343.1494 0054253  28.1676 332.2416 14.17009224910703"}}, "geometry": {"type": "Point", "coordinates": [-93.95360141772356, 81.32170512103615]}}, {"type": "Feature", "properties": {"norad_id": 35180, "name": "FENGYUN 1C DEB", "group": "fengyun-1c-debris", "lat": -41.96230066224597, "lon": -27.829316482092917, "alt_km": 1161.5988834778045, "timestamp": "2025-12-26T07:29:18.743334+00:00", "meta": {"OBJECT_NAME": "FENGYUN 1C DEB", "OBJECT_ID": "1999-025DNL", "EPOCH": "2025-12-23T17:14:03.437376", "MEAN_MOTION": 13.74480618, "ECCENTRICITY": 0.04956689, "INCLINATION": 99.7253, "RA_OF_ASC_NODE": 158.3893, "ARG_OF_PERICENTER": 349.9072, "MEAN_ANOMALY": 9.2401, "EPHEMERIS_TYPE": 0, "CLASSIFICATION_TYPE": "U", "NORAD_CAT_ID": 35180, "ELEMENT_SET_NO": 999, "REV_AT_EPOCH": 185, "BSTAR": 0.0020626755, "MEAN_MOTION_DOT": 4.753e-05, "MEAN_MOTION_DDOT": 0}, "tle": {"line1": "1 35180U 99025DNL 25357.71809534  .00004753  00000+0  20627-2 0  9998", "line2": "2 35180  99.7253 158.3893 0495668 349.9072   9.2401 13.74480618  1855"}}, "geometry": {"type": "Point", "coordinates": [-27.829316482092917, -41.96230066224597]}}]}